ONEWEB-0687             
1 61595U 24188B   26028.96383508  .00000074  00000+0  15854-3 0  9995
2 61595  87.9077  33.5540 0002422  91.6242 268.5167 13.17651145 67563
ONEWEB-0688             
1 61596U 24188C   26028.99252637  .00000053  00000+0  10395-3 0  9999
2 61596  87.9077  33.5479 0002903  71.4214 288.7233 13.17647510 67563
ONEWEB-0689             
1 61597U 24188D   26028.94917412  .00000294  00000+0  79479-3 0  9999
2 61597  87.8823  48.7423 0002074  99.1215 261.0147 13.11417041 66202
ONEWEB-0690             
1 61598U 24188E   26028.95935724  .00000540  00000+0  14871-2 0  9995
2 61598  87.8826  48.7606 0001259  75.9763 284.1504 13.11416634 66382
ONEWEB-0691             
1 61599U 24188F   26028.80167863  .00000502  00000+0  13809-2 0  9999
2 61599  87.8831  48.6903 0002189  86.0171 274.1207 13.11416994 66217
ONEWEB-0692             
1 61600U 24188G   26028.97460731  .00000266  00000+0  71418-3 0  9998
2 61600  87.8809  48.7958 0001767 122.5033 237.6266 13.11414048 66228
ONEWEB-0693             
1 61601U 24188H   26029.00433081  .00000069  00000+0  14491-3 0  9991
2 61601  87.9080  33.5670 0001443  61.7978 298.3299 13.17646868 67557
ONEWEB-0695             
1 61602U 24188J   26028.95086509  .00000356  00000+0  96769-3 0  9991
2 61602  87.8815  48.7905 0002277 105.9185 254.2195 13.11420738 66217
ONEWEB-0697             
1 61603U 24188K   26028.98308032  .00000038  00000+0  72429-4 0  9998
2 61603  87.8810  48.7739 0001683 119.2349 240.8948 13.11414132 66205
ONEWEB-0698             
1 61604U 24188L   26028.96105129  .00000574  00000+0  15838-2 0  9993
2 61604  87.8813  48.7937 0000827 123.7819 236.3387 13.11416599 66228
ONEWEB-0699             
1 61605U 24188M   26028.78671982  .00000518  00000+0  14471-2 0  9999
2 61605  87.8763  64.0447 0001591 118.5215 241.6073 13.10372123 65055
ONEWEB-0700             
1 61606U 24188N   26028.78839299  .00000282  00000+0  77237-3 0  9995
2 61606  87.8775  63.9344 0002071 116.4975 243.6365 13.10374863 65045
ONEWEB-0701             
1 61607U 24188P   26028.80496068 -.00000434  00000+0 -12803-2 0  9990
2 61607  87.8762  64.0409 0001627 124.6598 235.4683 13.10372884 65058
ONEWEB-0702             
1 61608U 24188Q   26028.77792328 -.00000398  00000+0 -11587-2 0  9992
2 61608  87.8829  48.7126 0001981 124.0282 236.1035 13.11417825 66219
ONEWEB-0704             
1 61609U 24188R   26028.64065748 -.00001293  00000+0 -37406-2 0  9991
2 61609  87.8770  64.0451 0002105 124.2925 235.8402 13.10358485 65018
ONEWEB-0705             
1 61610U 24188S   26028.79833413 -.00000186  00000+0 -56933-3 0  9998
2 61610  87.8765  64.0311 0002950 108.0887 252.0562 13.10371154 57202
ONEWEB-0706             
1 61611U 24188T   26028.78340154  .00000571  00000+0  16006-2 0  9995
2 61611  87.8754  64.0502 0002172 112.5033 247.6324 13.10372733 65122
