[{"OBJECT_NAME":"ONEWEB-0687","OBJECT_ID":"2024-188B","EPOCH":"2026-01-28T23:07:55.350912","MEAN_MOTION":13.17651145,"ECCENTRICITY":0.00024225,"INCLINATION":87.9077,"RA_OF_ASC_NODE":33.554,"ARG_OF_PERICENTER":91.6242,"MEAN_ANOMALY":268.5167,"EPHEMERIS_TYPE":0,"CLASSIFICATION_TYPE":"U","NORAD_CAT_ID":61595,"ELEMENT_SET_NO":999,"REV_AT_EPOCH":6756,"BSTAR":0.00015854081,"MEAN_MOTION_DOT":7.4e-7,"MEAN_MOTION_DDOT":0},{"OBJECT_NAME":"ONEWEB-0688","OBJECT_ID":"2024-188C","EPOCH":"2026-01-28T23:49:14.278368","MEAN_MOTION":13.1764751,"ECCENTRICITY":0.0002903,"INCLINATION":87.9077,"RA_OF_ASC_NODE":33.5479,"ARG_OF_PERICENTER":71.4214,"MEAN_ANOMALY":288.7233,"EPHEMERIS_TYPE":0,"CLASSIFICATION_TYPE":"U","NORAD_CAT_ID":61596,"ELEMENT_SET_NO":999,"REV_AT_EPOCH":6756,"BSTAR":0.00010395404,"MEAN_MOTION_DOT":5.3e-7,"MEAN_MOTION_DDOT":0},{"OBJECT_NAME":"ONEWEB-0689","OBJECT_ID":"2024-188D","EPOCH":"2026-01-28T22:46:48.643968","MEAN_MOTION":13.11417041,"ECCENTRICITY":0.00020742,"INCLINATION":87.8823,"RA_OF_ASC_NODE":48.7423,"ARG_OF_PERICENTER":99.1215,"MEAN_ANOMALY":261.0147,"EPHEMERIS_TYPE":0,"CLASSIFICATION_TYPE":"U","NORAD_CAT_ID":61597,"ELEMENT_SET_NO":999,"REV_AT_EPOCH":6620,"BSTAR":0.00079479431,"MEAN_MOTION_DOT":2.94e-6,"MEAN_MOTION_DDOT":0},{"OBJECT_NAME":"ONEWEB-0690","OBJECT_ID":"2024-188E","EPOCH":"2026-01-28T23:01:28.465536","MEAN_MOTION":13.11416634,"ECCENTRICITY":0.00012591,"INCLINATION":87.8826,"RA_OF_ASC_NODE":48.7606,"ARG_OF_PERICENTER":75.9763,"MEAN_ANOMALY":284.1504,"EPHEMERIS_TYPE":0,"CLASSIFICATION_TYPE":"U","NORAD_CAT_ID":61598,"ELEMENT_SET_NO":999,"REV_AT_EPOCH":6638,"BSTAR":0.0014870983,"MEAN_MOTION_DOT":5.4e-6,"MEAN_MOTION_DDOT":0},{"OBJECT_NAME":"ONEWEB-0691","OBJECT_ID":"2024-188F","EPOCH":"2026-01-28T19:14:25.033632","MEAN_MOTION":13.11416994,"ECCENTRICITY":0.00021899,"INCLINATION":87.8831,"RA_OF_ASC_NODE":48.6903,"ARG_OF_PERICENTER":86.0171,"MEAN_ANOMALY":274.1207,"EPHEMERIS_TYPE":0,"CLASSIFICATION_TYPE":"U","NORAD_CAT_ID":61599,"ELEMENT_SET_NO":999,"REV_AT_EPOCH":6621,"BSTAR":0.001380861,"MEAN_MOTION_DOT":5.02e-6,"MEAN_MOTION_DDOT":0},{"OBJECT_NAME":"ONEWEB-0692","OBJECT_ID":"2024-188G","EPOCH":"2026-01-28T23:23:26.071584","MEAN_MOTION":13.11414048,"ECCENTRICITY":0.00017673,"INCLINATION":87.8809,"RA_OF_ASC_NODE":48.7958,"ARG_OF_PERICENTER":122.5033,"MEAN_ANOMALY":237.6266,"EPHEMERIS_TYPE":0,"CLASSIFICATION_TYPE":"U","NORAD_CAT_ID":61600,"ELEMENT_SET_NO":999,"REV_AT_EPOCH":6622,"BSTAR":0.00071418389,"MEAN_MOTION_DOT":2.66e-6,"MEAN_MOTION_DDOT":0},{"OBJECT_NAME":"ONEWEB-0693","OBJECT_ID":"2024-188H","EPOCH":"2026-01-29T00:06:14.181984","MEAN_MOTION":13.17646868,"ECCENTRICITY":0.00014439,"INCLINATION":87.908,"RA_OF_ASC_NODE":33.567,"ARG_OF_PERICENTER":61.7978,"MEAN_ANOMALY":298.3299,"EPHEMERIS_TYPE":0,"CLASSIFICATION_TYPE":"U","NORAD_CAT_ID":61601,"ELEMENT_SET_NO":999,"REV_AT_EPOCH":6755,"BSTAR":0.00014490565,"MEAN_MOTION_DOT":6.9e-7,"MEAN_MOTION_DDOT":0},{"OBJECT_NAME":"ONEWEB-0695","OBJECT_ID":"2024-188J","EPOCH":"2026-01-28T22:49:14.743776","MEAN_MOTION":13.11420738,"ECCENTRICITY":0.00022773,"INCLINATION":87.8815,"RA_OF_ASC_NODE":48.7905,"ARG_OF_PERICENTER":105.9185,"MEAN_ANOMALY":254.2195,"EPHEMERIS_TYPE":0,"CLASSIFICATION_TYPE":"U","NORAD_CAT_ID":61602,"ELEMENT_SET_NO":999,"REV_AT_EPOCH":6621,"BSTAR":0.00096768893,"MEAN_MOTION_DOT":3.56e-6,"MEAN_MOTION_DDOT":0},{"OBJECT_NAME":"ONEWEB-0697","OBJECT_ID":"2024-188K","EPOCH":"2026-01-28T23:35:38.139648","MEAN_MOTION":13.11414132,"ECCENTRICITY":0.0001683,"INCLINATION":87.881,"RA_OF_ASC_NODE":48.7739,"ARG_OF_PERICENTER":119.2349,"MEAN_ANOMALY":240.8948,"EPHEMERIS_TYPE":0,"CLASSIFICATION_TYPE":"U","NORAD_CAT_ID":61603,"ELEMENT_SET_NO":999,"REV_AT_EPOCH":6620,"BSTAR":7.2429133e-5,"MEAN_MOTION_DOT":3.8e-7,"MEAN_MOTION_DDOT":0},{"OBJECT_NAME":"ONEWEB-0698","OBJECT_ID":"2024-188L","EPOCH":"2026-01-28T23:03:54.831456","MEAN_MOTION":13.11416599,"ECCENTRICITY":8.271e-5,"INCLINATION":87.8813,"RA_OF_ASC_NODE":48.7937,"ARG_OF_PERICENTER":123.7819,"MEAN_ANOMALY":236.3387,"EPHEMERIS_TYPE":0,"CLASSIFICATION_TYPE":"U","NORAD_CAT_ID":61604,"ELEMENT_SET_NO":999,"REV_AT_EPOCH":6622,"BSTAR":0.0015837806,"MEAN_MOTION_DOT":5.74e-6,"MEAN_MOTION_DDOT":0},{"OBJECT_NAME":"ONEWEB-0699","OBJECT_ID":"2024-188M","EPOCH":"2026-01-28T18:52:52.592448","MEAN_MOTION":13.10372123,"ECCENTRICITY":0.00015911,"INCLINATION":87.8763,"RA_OF_ASC_NODE":64.0447,"ARG_OF_PERICENTER":118.5215,"MEAN_ANOMALY":241.6073,"EPHEMERIS_TYPE":0,"CLASSIFICATION_TYPE":"U","NORAD_CAT_ID":61605,"ELEMENT_SET_NO":999,"REV_AT_EPOCH":6505,"BSTAR":0.0014470947,"MEAN_MOTION_DOT":5.18e-6,"MEAN_MOTION_DDOT":0},{"OBJECT_NAME":"ONEWEB-0700","OBJECT_ID":"2024-188N","EPOCH":"2026-01-28T18:55:17.154336","MEAN_MOTION":13.10374863,"ECCENTRICITY":0.00020715,"INCLINATION":87.8775,"RA_OF_ASC_NODE":63.9344,"ARG_OF_PERICENTER":116.4975,"MEAN_ANOMALY":243.6365,"EPHEMERIS_TYPE":0,"CLASSIFICATION_TYPE":"U","NORAD_CAT_ID":61606,"ELEMENT_SET_NO":999,"REV_AT_EPOCH":6504,"BSTAR":0.00077236831,"MEAN_MOTION_DOT":2.82e-6,"MEAN_MOTION_DDOT":0},{"OBJECT_NAME":"ONEWEB-0701","OBJECT_ID":"2024-188P","EPOCH":"2026-01-28T19:19:08.602752","MEAN_MOTION":13.10372884,"ECCENTRICITY":0.00016277,"INCLINATION":87.8762,"RA_OF_ASC_NODE":64.0409,"ARG_OF_PERICENTER":124.6598,"MEAN_ANOMALY":235.4683,"EPHEMERIS_TYPE":0,"CLASSIFICATION_TYPE":"U","NORAD_CAT_ID":61607,"ELEMENT_SET_NO":999,"REV_AT_EPOCH":6505,"BSTAR":-0.0012803362,"MEAN_MOTION_DOT":-4.34e-6,"MEAN_MOTION_DDOT":0},{"OBJECT_NAME":"ONEWEB-0702","OBJECT_ID":"2024-188Q","EPOCH":"2026-01-28T18:40:12.571392","MEAN_MOTION":13.11417825,"ECCENTRICITY":0.0001981,"INCLINATION":87.8829,"RA_OF_ASC_NODE":48.7126,"ARG_OF_PERICENTER":124.0282,"MEAN_ANOMALY":236.1035,"EPHEMERIS_TYPE":0,"CLASSIFICATION_TYPE":"U","NORAD_CAT_ID":61608,"ELEMENT_SET_NO":999,"REV_AT_EPOCH":6621,"BSTAR":-0.0011586626,"MEAN_MOTION_DOT":-3.98e-6,"MEAN_MOTION_DDOT":0},{"OBJECT_NAME":"ONEWEB-0704","OBJECT_ID":"2024-188R","EPOCH":"2026-01-28T15:22:32.806272","MEAN_MOTION":13.10358485,"ECCENTRICITY":0.00021058,"INCLINATION":87.877,"RA_OF_ASC_NODE":64.0451,"ARG_OF_PERICENTER":124.2925,"MEAN_ANOMALY":235.8402,"EPHEMERIS_TYPE":0,"CLASSIFICATION_TYPE":"U","NORAD_CAT_ID":61609,"ELEMENT_SET_NO":999,"REV_AT_EPOCH":6501,"BSTAR":-0.0037406319,"MEAN_MOTION_DOT":-1.293e-5,"MEAN_MOTION_DDOT":0},{"OBJECT_NAME":"ONEWEB-0705","OBJECT_ID":"2024-188S","EPOCH":"2026-01-28T19:09:36.068832","MEAN_MOTION":13.10371154,"ECCENTRICITY":0.00029504,"INCLINATION":87.8765,"RA_OF_ASC_NODE":64.0311,"ARG_OF_PERICENTER":108.0887,"MEAN_ANOMALY":252.0562,"EPHEMERIS_TYPE":0,"CLASSIFICATION_TYPE":"U","NORAD_CAT_ID":61610,"ELEMENT_SET_NO":999,"REV_AT_EPOCH":5720,"BSTAR":-0.0005693296,"MEAN_MOTION_DOT":-1.86e-6,"MEAN_MOTION_DDOT":0},{"OBJECT_NAME":"ONEWEB-0706","OBJECT_ID":"2024-188T","EPOCH":"2026-01-28T18:48:05.893056","MEAN_MOTION":13.10372733,"ECCENTRICITY":0.00021721,"INCLINATION":87.8754,"RA_OF_ASC_NODE":64.0502,"ARG_OF_PERICENTER":112.5033,"MEAN_ANOMALY":247.6324,"EPHEMERIS_TYPE":0,"CLASSIFICATION_TYPE":"U","NORAD_CAT_ID":61611,"ELEMENT_SET_NO":999,"REV_AT_EPOCH":6512,"BSTAR":0.0016005762,"MEAN_MOTION_DOT":5.71e-6,"MEAN_MOTION_DDOT":0}]
